[{"OBJECT_NAME":"STARLINK-5659","OBJECT_ID":"2023-013W","EPOCH":"2026-03-09T00:51:15.306912","MEAN_MOTION":15.02535253,"ECCENTRICITY":8.916e-5,"INCLINATION":43.0035,"RA_OF_ASC_NODE":303.6599,"ARG_OF_PERICENTER":278.5942,"MEAN_ANOMALY":81.48,"EPHEMERIS_TYPE":0,"CLASSIFICATION_TYPE":"U","NORAD_CAT_ID":55351,"ELEMENT_SET_NO":999,"REV_AT_EPOCH":17161,"BSTAR":8.97847e-7,"MEAN_MOTION_DOT":-1.91e-6,"MEAN_MOTION_DDOT":0},{"OBJECT_NAME":"CZ-2C DEB","OBJECT_ID":"2026-009C","EPOCH":"2026-03-09T19:20:16.840608","MEAN_MOTION":15.15876918,"ECCENTRICITY":0.01015815,"INCLINATION":97.2202,"RA_OF_ASC_NODE":140.8028,"ARG_OF_PERICENTER":36.3959,"MEAN_ANOMALY":324.4125,"EPHEMERIS_TYPE":0,"CLASSIFICATION_TYPE":"U","NORAD_CAT_ID":67586,"ELEMENT_SET_NO":999,"REV_AT_EPOCH":810,"BSTAR":0.0025681251,"MEAN_MOTION_DOT":0.0005635,"MEAN_MOTION_DDOT":0}]
